[{"OBJECT_NAME":"KAZEOSAT 2","OBJECT_ID":"2014-033A","EPOCH":"2026-03-09T22:28:55.871328","MEAN_MOTION":14.85341889,"ECCENTRICITY":0.0007207,"INCLINATION":97.5485,"RA_OF_ASC_NODE":273.7466,"ARG_OF_PERICENTER":292.4947,"MEAN_ANOMALY":67.5505,"EPHEMERIS_TYPE":0,"CLASSIFICATION_TYPE":"U","NORAD_CAT_ID":40010,"ELEMENT_SET_NO":999,"REV_AT_EPOCH":63422,"BSTAR":0.00022131072,"MEAN_MOTION_DOT":1.854e-5,"MEAN_MOTION_DDOT":0},{"OBJECT_NAME":"GEESAT-2 10","OBJECT_ID":"2024-023K","EPOCH":"2026-03-09T22:53:20.332320","MEAN_MOTION":14.82907503,"ECCENTRICITY":0.0010254,"INCLINATION":49.993,"RA_OF_ASC_NODE":93.4916,"ARG_OF_PERICENTER":333.7702,"MEAN_ANOMALY":26.2716,"EPHEMERIS_TYPE":0,"CLASSIFICATION_TYPE":"U","NORAD_CAT_ID":58914,"ELEMENT_SET_NO":999,"REV_AT_EPOCH":11418,"BSTAR":0.00033687737,"MEAN_MOTION_DOT":2.537e-5,"MEAN_MOTION_DDOT":0}]
